#aV2019  3 21  0  0  0.00000000     288 DD+AD WGS84 FIT  NGA
## 2045 345600.00000000   300.00000000 58563 0.0000000000000
+   31     1  2  3  5  6  7  8  9 10 11 12 13 14 15 16 17 18
+         19 20 21 22 23 24 25 26 27 28 29 30 31 32  0  0  0
+          0  0  0  0  0  0  0  0  0  0  0  0  0  0  0  0  0
+          0  0  0  0  0  0  0  0  0  0  0  0  0  0  0  0  0
+          0  0  0  0  0  0  0  0  0  0  0  0  0  0  0  0  0
++         2  2  2  2  2  2  2  2  2  2  2  2  2  2  2  2  2
++         2  2  2  2  2  2  2  2  2  2  2  2  2  2  0  0  0
++         0  0  0  0  0  0  0  0  0  0  0  0  0  0  0  0  0
++         0  0  0  0  0  0  0  0  0  0  0  0  0  0  0  0  0
++         0  0  0  0  0  0  0  0  0  0  0  0  0  0  0  0  0
%c cc cc ccc ccc cccc cccc cccc cccc ccccc ccccc ccccc ccccc
%c cc cc ccc ccc cccc cccc cccc cccc ccccc ccccc ccccc ccccc
%f  0.0000000  0.000000000  0.00000000000  0.000000000000000
%f  0.0000000  0.000000000  0.00000000000  0.000000000000000
%i    0    0    0    0      0      0      0      0         0
%i    0    0    0    0      0      0      0      0         0
/*      NGA, ST. LOUIS,MO.                                  
/*   EPHEMERIS COMPUTED FROM 2 DAYS OF DATA                 
/*   EPOCHA v3 SMOOTHER                                     
/*   G1762 IERS2010 SATAF SATAPC                            
*  2019  3 21  9 30  0.00000000
P  1 -13889.783689  21686.690971   5593.509127   -185.110440                    
V  1    648.801141  -7795.709392  31193.760537     -0.076543                    
P  2  16256.031445  -2618.923611 -20201.046751   -168.955401                    
V  2  -8330.047639  25807.027083  -9926.337581     -0.096046                    
P  3 -17612.954013  12618.618896 -15342.369722    186.947921                    
V  3 -19551.866702     66.916546  22626.753333      0.009072                    
P  5  26519.245256  -1901.162839  -2245.269674      1.183464                    
V  5  -2281.626239   3310.422810 -31199.092990      0.000150                    
P  6  11274.943763  10660.061679 -21502.992962    250.127641                    
V  6 -11452.568714  24878.156245   6344.933279     -0.089325                    
P  7  -5097.466354  24623.062472   8021.315063     10.772959                    
V  7  -6995.596969   7775.854490 -29676.618828     -0.073458                    
P  8 -14361.508628   5606.367926  21690.832019   -136.965928                    
V  8 -16221.189304 -22067.836524  -4849.677937     -0.013949                    
P  9   4695.849260  22337.930136 -13616.334123    441.869279                    
V  9 -12264.962617 -12344.750897 -24571.863438     -0.059325                    
P 10 -14183.608912 -11879.143508  19186.556720     92.302458                    
V 10  23892.199505  -3837.672605  15142.597548     -0.087809                    
P 11 -10152.857646  20148.414675  13664.797058   -641.249285                    
V 11  -3794.042733 -18204.927710  22891.750839      0.067168                    
P 12  19242.707808 -10712.261391 -14922.094639    258.288908                    
V 12  18655.960732    859.383167  23951.508823     -0.032801                    
P 13  17442.563910   3607.681408  19600.252776    -70.905004                    
V 13  11231.471344  22479.463914 -14012.018404      0.014301                    
P 14 -17969.889705 -17459.823511  -8774.074786    -87.545488                    
V 14  -3918.857193 -11119.772669  28945.910673      0.014240                    
P 15  13271.936079  -8746.921109  21040.725521   -322.479888                    
V 15  18040.266323  20660.873698  -2366.435129      0.018944                    
P 16 -26800.248136    290.429010   -417.347065    -26.903947                    
V 16    265.365459  -1715.673320 -31959.576119     -0.026676                    
P 17  14502.753856  22306.805729     63.936931     26.696931                    
V 17  -1449.359868   1439.681619  32208.585334      0.057960                    
P 18 -16353.630950  15237.101418  13758.188657     36.814659                    
V 18   4185.543240 -18063.771520  24275.867627      0.035195                    
P 19  17618.459095  17609.290956  -9370.866205   -339.863412                    
V 19   4140.074730  10886.482709  29252.390703      0.043105                    
P 20  -4096.734605 -15291.564713  21222.156125    523.290540                    
V 20  26621.989690  -6126.407088    579.628094      0.003533                    
P 21     -4.731842 -24224.464228  11845.891958   -228.301025                    
V 21   7126.181734 -12067.318229 -26370.846241      0.074420                    
P 22 -22994.758251  10276.074174  -8092.360654   -668.462286                    
V 22 -11149.421324  -1757.854106  28670.038407     -0.074342                    
P 23  -5783.639435  16157.483188 -19844.951313   -193.240081                    
V 23 -16947.178763 -19880.063302 -11473.487804      0.014036                    
P 24  14907.981889 -19566.746717   9429.329263    -63.671906                    
V 24  -1203.320244  12748.842689  28228.528309     -0.004481                    
P 25   7136.857791 -15061.954559 -20825.818664   -735.839252                    
V 25  25962.113115  -1792.442160  10548.336225     -0.048360                    
P 26 -23920.536034  -4609.727274 -10808.872409    154.915656                    
V 26  13206.820932  -4304.640661 -27258.996518      0.100676                    
P 27 -19006.654895  -5786.965551  17678.275134    -90.738631                    
V 27 -12348.242847 -18822.051950 -19043.541057     -0.081111                    
P 28  11773.437364  13333.786006  20303.750054    766.597367                    
V 28 -24400.067406   1232.517028  13847.201561      0.004573                    
P 29    912.030329 -20052.524651 -17419.316243    244.367103                    
V 29  12870.618979  17898.358931 -19955.008871     -0.088640                    
P 30   3643.013643  20182.973759  16793.573987    -72.239729                    
V 30 -11537.814076  18194.359172 -19559.115338     -0.066672                    
P 31 -12279.519213  -9333.179612 -21581.534428     50.660319                    
V 31  12317.598446 -24547.255852   4043.621679     -0.026825                    
P 32 -17358.110620 -19970.471899  -2891.751335   -170.707126                    
V 32     43.607130  -4663.702683  31322.317873      0.183870                    
EOF
